IRIDIUM 921 [-]         
1 24873U 97034E   24076.75734837  .00018842  00000+0  58421-3 0  9995
2 24873  86.3868 333.6610 0001486 196.2961 163.8242 15.33299458460993
IRIDIUM 26 [-]          
1 24903U 97043A   24076.67242407  .00000421  00000+0  13772-3 0  9991
2 24903  86.3932 302.6064 0002136  92.8112 267.3329 14.36240672391052
IRIDIUM 22 [-]          
1 24907U 97043E   24076.72639473  .00000397  00000+0  13210-3 0  9993
2 24907  86.3941 305.7486 0002075  86.5018 273.6415 14.35136000391149
DUMMY MASS 1 [-]        
1 24925U 97048A   24076.81398856  .00000582  00000+0  63350-4 0  9992
2 24925  86.3397 346.6733 0005938 348.0166  12.0916 14.86093706437181
DUMMY MASS 2 [-]        
1 24926U 97048B   24076.83562772  .00000587  00000+0  64175-4 0  9996
2 24926  86.3398 348.1888 0007166 356.9866   3.1314 14.85852912436971
IRIDIUM 29 [-]          
1 24944U 97051A   24076.75842856  .00000449  00000+0  14913-3 0  9996
2 24944  86.3996 335.6653 0001975  80.6195 279.5224 14.35594768387627
IRIDIUM 33 [-]          
1 24946U 97051C   24076.76933054  .00000318  00000+0  10638-3 0  9995
2 24946  86.3910 334.9196 0009544 122.3759 237.8362 14.34285287387160
IRIDIUM 28 [-]          
1 24948U 97051E   24076.75379613  .00000442  00000+0  14383-3 0  9990
2 24948  86.3998 333.4463 0002389  95.1332 265.0137 14.36543415388158
